[{"OBJECT_NAME":"STARLINK-31657","OBJECT_ID":"2024-071D","EPOCH":"2026-03-09T01:57:04.100544","MEAN_MOTION":15.2756621,"ECCENTRICITY":0.00014394,"INCLINATION":43.0031,"RA_OF_ASC_NODE":343.0916,"ARG_OF_PERICENTER":283.5557,"MEAN_ANOMALY":76.5134,"EPHEMERIS_TYPE":0,"CLASSIFICATION_TYPE":"U","NORAD_CAT_ID":59487,"ELEMENT_SET_NO":999,"REV_AT_EPOCH":10811,"BSTAR":-0.0001504653,"MEAN_MOTION_DOT":-4.398e-5,"MEAN_MOTION_DDOT":0},{"OBJECT_NAME":"CZ-6A DEB","OBJECT_ID":"2022-151DE","EPOCH":"2026-03-09T09:45:43.657920","MEAN_MOTION":15.34292219,"ECCENTRICITY":0.00393756,"INCLINATION":99.0022,"RA_OF_ASC_NODE":218.5596,"ARG_OF_PERICENTER":192.6197,"MEAN_ANOMALY":167.4059,"EPHEMERIS_TYPE":0,"CLASSIFICATION_TYPE":"U","NORAD_CAT_ID":54359,"ELEMENT_SET_NO":999,"REV_AT_EPOCH":10560,"BSTAR":0.0065240017,"MEAN_MOTION_DOT":0.00228186,"MEAN_MOTION_DDOT":0}]
